<?xml version="1.0" encoding="UTF-8"?>
<gpx version="1.1" creator="Marando" xmlns="http://www.topografix.com/GPX/1/1">
<wpt lat="49.994170000000004" lon="1.2440433333333334"><ele>0</ele><name>OMIMG_20260326_114056_bis</name><desc>2026:03:26 11:41:07</desc></wpt>
<wpt lat="49.99370972222222" lon="1.2431997222222222"><ele>0</ele><name>OMIMG_20260326_112038_bis</name><desc>2026:03:26 11:20:47</desc></wpt>
<wpt lat="49.99370972222222" lon="1.2431997222222222"><ele>0</ele><name>OMIMG_20260326_112023_bis</name><desc>2026:03:26 11:20:32</desc></wpt>
<wpt lat="49.993323333333336" lon="1.242455"><ele>0</ele><name>OMIMG_20260326_111252_bis</name><desc>2026:03:26 11:13:02</desc></wpt>
<wpt lat="49.993323333333336" lon="1.242455"><ele>0</ele><name>OMIMG_20260326_111242_bis</name><desc>2026:03:26 11:12:47</desc></wpt>
<wpt lat="49.99319472222222" lon="1.2420347222222223"><ele>0</ele><name>OMIMG_20260326_110319_bis</name><desc>2026:03:26 11:03:32</desc></wpt>
<wpt lat="49.99319472222222" lon="1.2420347222222223"><ele>0</ele><name>OMIMG_20260326_110303_bis</name><desc>2026:03:26 11:03:12</desc></wpt>
<wpt lat="49.99277166666667" lon="1.2412983333333334"><ele>0</ele><name>OMIMG_20260326_105407_bis</name><desc>2026:03:26 10:54:18</desc></wpt>
<wpt lat="49.99277166666667" lon="1.2412983333333334"><ele>0</ele><name>OMIMG_20260326_105357_bis</name><desc>2026:03:26 10:54:01</desc></wpt>
<wpt lat="49.99228638888889" lon="1.2401680555555556"><ele>0</ele><name>OMIMG_20260326_104334_bis</name><desc>2026:03:26 10:43:46</desc></wpt>
<wpt lat="49.99228638888889" lon="1.2401680555555556"><ele>0</ele><name>OMIMG_20260326_104323_bis</name><desc>2026:03:26 10:43:29</desc></wpt>
<wpt lat="49.992005" lon="1.2393433333333335"><ele>0</ele><name>OMIMG_20260326_103458_bis</name><desc>2026:03:26 10:35:07</desc></wpt>
<wpt lat="49.992005" lon="1.2393433333333335"><ele>0</ele><name>OMIMG_20260326_103449_bis</name><desc>2026:03:26 10:34:54</desc></wpt>
<wpt lat="49.991353333333336" lon="1.2382247222222222"><ele>0</ele><name>OMIMG_20260326_102335_bis</name><desc>2026:03:26 10:23:42</desc></wpt>
<wpt lat="49.991353333333336" lon="1.2382247222222222"><ele>0</ele><name>OMIMG_20260326_102325_bis</name><desc>2026:03:26 10:23:30</desc></wpt>
<wpt lat="49.990568333333336" lon="1.2368016666666668"><ele>0</ele><name>OMIMG_20260326_101546_bis</name><desc>2026:03:26 10:15:54</desc></wpt>
<wpt lat="49.990568333333336" lon="1.2368016666666668"><ele>0</ele><name>OMIMG_20260326_101533_bis</name><desc>2026:03:26 10:15:38</desc></wpt>
<wpt lat="49.99005833333334" lon="1.236096388888889"><ele>0</ele><name>OMIMG_20260326_100921_bis</name><desc>2026:03:26 10:09:30</desc></wpt>
<wpt lat="49.99005833333334" lon="1.236096388888889"><ele>0</ele><name>OMIMG_20260326_100910_bis</name><desc>2026:03:26 10:09:15</desc></wpt>
<wpt lat="49.989576666666665" lon="1.23522"><ele>0</ele><name>OMIMG_20260326_100148_bis</name><desc>2026:03:26 10:01:52</desc></wpt>
<wpt lat="49.989576666666665" lon="1.23522"><ele>0</ele><name>OMIMG_20260326_100111_bis</name><desc>2026:03:26 10:01:16</desc></wpt>
<wpt lat="49.98939166666667" lon="1.2345447222222223"><ele>0</ele><name>OMIMG_20260326_095414_bis</name><desc>2026:03:26 09:54:21</desc></wpt>
<wpt lat="49.98939166666667" lon="1.2345447222222223"><ele>0</ele><name>OMIMG_20260326_095325_bis</name><desc>2026:03:26 09:53:37</desc></wpt>
<wpt lat="49.98939166666667" lon="1.2345447222222223"><ele>0</ele><name>OMIMG_20260326_095311_bis</name><desc>2026:03:26 09:53:17</desc></wpt>
<wpt lat="49.988925" lon="1.2338"><ele>0</ele><name>OMIMG_20260326_094351_bis</name><desc>2026:03:26 09:44:03</desc></wpt>
<wpt lat="49.988925" lon="1.2338"><ele>0</ele><name>OMIMG_20260326_094338_bis</name><desc>2026:03:26 09:43:45</desc></wpt>
<wpt lat="49.98852638888889" lon="1.2329697222222222"><ele>0</ele><name>OMIMG_20260326_093300_bis</name><desc>2026:03:26 09:33:08</desc></wpt>
<wpt lat="49.98802138888889" lon="1.2323433333333333"><ele>0</ele><name>OMIMG_20260326_092341_bis</name><desc>2026:03:26 09:23:44</desc></wpt>
<wpt lat="49.98752138888889" lon="1.2316130555555558"><ele>0</ele><name>OMIMG_20260326_091219_bis</name><desc>2026:03:26 09:12:29</desc></wpt>
<wpt lat="49.98752138888889" lon="1.2316130555555558"><ele>0</ele><name>OMIMG_20260326_091209_bis</name><desc>2026:03:26 09:12:13</desc></wpt>
<wpt lat="49.98662138888889" lon="1.2297833333333335"><ele>0</ele><name>OMIMG_20260326_090016_bis</name><desc>2026:03:26 09:00:21</desc></wpt>
<wpt lat="49.98634666666667" lon="1.2295716666666667"><ele>0</ele><name>OMIMG_20260326_085543_bis</name><desc>2026:03:26 08:55:57</desc></wpt>
<wpt lat="49.98634972222222" lon="1.2295716666666667"><ele>0</ele><name>OMIMG_20260326_085529_bis</name><desc>2026:03:26 08:55:36</desc></wpt>
<wpt lat="49.98632305555556" lon="1.2291497222222223"><ele>0</ele><name>OMIMG_20260326_085040_bis</name><desc>2026:03:26 08:50:46</desc></wpt>
<wpt lat="49.985998055555555" lon="1.2284730555555556"><ele>0</ele><name>OMIMG_20260326_084729_bis</name><desc>2026:03:26 08:47:33</desc></wpt>
<trk><name>kmz_des_photos_bis_penly_est_20aout2026_2026</name><trkseg>

</trkseg></trk>
</gpx>