<?xml version="1.0" encoding="UTF-8"?>
<gpx version="1.1" creator="Marando" xmlns="http://www.topografix.com/GPX/1/1">
<wpt lat="49.969472" lon="1.197535"><ele>47</ele><name>IMG_20210913_143719_bis.jpg</name><desc>Date : 2021-09-13 14:37:20 Latitude : 49.969472 Longitude : 1.197535 Altitude : 47.0 m</desc></wpt>
<wpt lat="49.968553972222225" lon="1.196012"><ele>35.4</ele><name>IMG_20210913_142545_bis.jpg</name><desc>Date : 2021-09-13 14:25:48 Latitude : 49.968554 Longitude : 1.196012 Altitude : 35.4 m</desc></wpt>
<wpt lat="49.96985" lon="1.198803"><ele>43.8</ele><name>IMG_20210913_144654_bis.jpg</name><desc>Date : 2021-09-13 14:46:58 Latitude : 49.969850 Longitude : 1.198803 Altitude : 43.8 m</desc></wpt>
<wpt lat="49.95783" lon="1.165432972222222"><ele>58.8</ele><name>OMIMG_20210531_093458_bis.jpg</name><desc>Date : 2021-05-31 09:35:11 Latitude : 49.957830 Longitude : 1.165433 Altitude : 58.8 m</desc></wpt>
<wpt lat="49.967010972222226" lon="1.1877709722222223"><ele>39.7</ele><name>IMG_20210913_094845_bis.jpg</name><desc>Date : 2021-09-13 09:48:48 Latitude : 49.967011 Longitude : 1.187771 Altitude : 39.7 m</desc></wpt>
<wpt lat="49.956794" lon="1.163289972222222"><ele>51.4</ele><name>OMIMG_20210531_095955_bis.jpg</name><desc>Date : 2021-05-31 10:00:03 Latitude : 49.956794 Longitude : 1.163290 Altitude : 51.4 m</desc></wpt>
<wpt lat="49.9665" lon="1.1851499722222223"><ele>46.7</ele><name>IMG_20210913_112130_bis.jpg</name><desc>Date : 2021-09-13 11:21:32 Latitude : 49.966500 Longitude : 1.185150 Altitude : 46.7 m</desc></wpt>
<wpt lat="49.958595" lon="1.1677269722222223"><ele>48.8</ele><name>OMIMG_20210531_104625_bis.jpg</name><desc>Date : 2021-05-31 10:46:31 Latitude : 49.958595 Longitude : 1.167727 Altitude : 48.8 m</desc></wpt>
<wpt lat="49.958775" lon="1.168018"><ele>46.1</ele><name>OMIMG_20210531_104758_bis.jpg</name><desc>Date : 2021-05-31 10:48:07 Latitude : 49.958775 Longitude : 1.168018 Altitude : 46.1 m</desc></wpt>
<wpt lat="49.959010972222224" lon="1.168404"><ele>44.1</ele><name>OMIMG_20210531_105622_bis.jpg</name><desc>Date : 2021-05-31 10:56:31 Latitude : 49.959011 Longitude : 1.168404 Altitude : 44.1 m</desc></wpt>
<wpt lat="49.959057" lon="1.1684879722222223"><ele>44.7</ele><name>OMIMG_20210531_105854_bis.jpg</name><desc>Date : 2021-05-31 10:59:01 Latitude : 49.959057 Longitude : 1.168488 Altitude : 44.7 m</desc></wpt>
<wpt lat="49.959535" lon="1.1691169722222223"><ele>45.8</ele><name>OMIMG_20210531_110546_bis.jpg</name><desc>Date : 2021-05-31 11:05:54 Latitude : 49.959535 Longitude : 1.169117 Altitude : 45.8 m</desc></wpt>
<wpt lat="49.96629" lon="1.183939"><ele>46.8</ele><name>IMG_20210913_114105_bis.jpg</name><desc>Date : 2021-09-13 11:41:07 Latitude : 49.966290 Longitude : 1.183939 Altitude : 46.8 m</desc></wpt>
<wpt lat="49.959792972222225" lon="1.1695199722222223"><ele>43</ele><name>OMIMG_20210531_111028_bis.jpg</name><desc>Date : 2021-05-31 11:10:36 Latitude : 49.959793 Longitude : 1.169520 Altitude : 43.0 m</desc></wpt>
<wpt lat="49.960054972222224" lon="1.1696549722222223"><ele>48.2</ele><name>OMIMG_20210531_111324_bis.jpg</name><desc>Date : 2021-05-31 11:13:46 Latitude : 49.960055 Longitude : 1.169655 Altitude : 48.2 m</desc></wpt>
<wpt lat="49.960303" lon="1.1700859722222223"><ele>48.3</ele><name>OMIMG_20210531_112403_bis.jpg</name><desc>Date : 2021-05-31 11:24:10 Latitude : 49.960303 Longitude : 1.170086 Altitude : 48.3 m</desc></wpt>
<wpt lat="49.960541972222224" lon="1.1697999722222223"><ele>48.5</ele><name>OMIMG_20210531_112522_bis.jpg</name><desc>Date : 2021-05-31 11:25:30 Latitude : 49.960542 Longitude : 1.169800 Altitude : 48.5 m</desc></wpt>
<wpt lat="49.960898" lon="1.1713919722222224"><ele>51.5</ele><name>OMIMG_20210531_113749_bis.jpg</name><desc>Date : 2021-05-31 11:37:57 Latitude : 49.960898 Longitude : 1.171392 Altitude : 51.5 m</desc></wpt>
<wpt lat="49.96731197222223" lon="1.1925559722222223"><ele>42.8</ele><name>IMG_20210913_130347_ter.jpg</name><desc>Date : 2021-09-13 13:03:48 Latitude : 49.967312 Longitude : 1.192556 Altitude : 42.8 m</desc></wpt>
<wpt lat="49.961697972222225" lon="1.172759"><ele>54.9</ele><name>OMIMG_20210531_115503_bis.jpg</name><desc>Date : 2021-05-31 11:55:10 Latitude : 49.961698 Longitude : 1.172759 Altitude : 54.9 m</desc></wpt>
<wpt lat="49.966143" lon="1.184234"><ele>44.2</ele><name>OMIMG_20210531_135007_bis.jpg</name><desc>Date : 2021-05-31 13:50:14 Latitude : 49.966143 Longitude : 1.184234 Altitude : 44.2 m</desc></wpt>
<wpt lat="49.966138" lon="1.1842829722222223"><ele>43.8</ele><name>OMIMG_20210531_135343_bis.jpg</name><desc>Date : 2021-05-31 13:53:53 Latitude : 49.966138 Longitude : 1.184283 Altitude : 43.8 m</desc></wpt>
<wpt lat="49.966236" lon="1.1850639722222223"><ele>42</ele><name>OMIMG_20210531_140213_bis.jpg</name><desc>Date : 2021-05-31 14:02:20 Latitude : 49.966236 Longitude : 1.185064 Altitude : 42.0 m</desc></wpt>
<wpt lat="49.966487972222225" lon="1.1853029722222221"><ele>40.9</ele><name>OMIMG_20210531_141016_bis.jpg</name><desc>Date : 2021-05-31 14:10:22 Latitude : 49.966488 Longitude : 1.185303 Altitude : 40.9 m</desc></wpt>
<wpt lat="49.96641" lon="1.185996"><ele>46.2</ele><name>OMIMG_20210531_141811_bis.jpg</name><desc>Date : 2021-05-31 14:18:19 Latitude : 49.966410 Longitude : 1.185996 Altitude : 46.2 m</desc></wpt>
<wpt lat="49.961723972222224" lon="1.173051"><ele>51.5</ele><name>OMIMG_20210531_120450_bis.jpg</name><desc>Date : 2021-05-31 12:04:59 Latitude : 49.961724 Longitude : 1.173051 Altitude : 51.5 m</desc></wpt>
<wpt lat="49.96639297222222" lon="1.1860159722222223"><ele>41.9</ele><name>OMIMG_20210531_142735_bis.jpg</name><desc>Date : 2021-05-31 14:27:43 Latitude : 49.966393 Longitude : 1.186016 Altitude : 41.9 m</desc></wpt>
<wpt lat="49.966562" lon="1.186531"><ele>40.7</ele><name>OMIMG_20210531_143636_bis.jpg</name><desc>Date : 2021-05-31 14:36:46 Latitude : 49.966562 Longitude : 1.186531 Altitude : 40.7 m</desc></wpt>
<wpt lat="49.962046" lon="1.1735159722222224"><ele>48.2</ele><name>OMIMG_20210531_121441_bis.jpg</name><desc>Date : 2021-05-31 12:14:49 Latitude : 49.962046 Longitude : 1.173516 Altitude : 48.2 m</desc></wpt>
<wpt lat="49.961877972222226" lon="1.1739459722222223"><ele>52.2</ele><name>OMIMG_20210531_121717_bis.jpg</name><desc>Date : 2021-05-31 12:17:24 Latitude : 49.961878 Longitude : 1.173946 Altitude : 52.2 m</desc></wpt>
<wpt lat="49.962465972222226" lon="1.1751059722222224"><ele>49.1</ele><name>OMIMG_20210531_122746_bis.jpg</name><desc>Date : 2021-05-31 12:27:52 Latitude : 49.962466 Longitude : 1.175106 Altitude : 49.1 m</desc></wpt>
<wpt lat="49.962468972222226" lon="1.175116"><ele>48.3</ele><name>OMIMG_20210531_122801_bis.jpg</name><desc>Date : 2021-05-31 12:28:06 Latitude : 49.962469 Longitude : 1.175116 Altitude : 48.3 m</desc></wpt>
<wpt lat="49.962856" lon="1.1760019722222224"><ele>45.1</ele><name>OMIMG_20210531_123537_bis.jpg</name><desc>Date : 2021-05-31 12:35:44 Latitude : 49.962856 Longitude : 1.176002 Altitude : 45.1 m</desc></wpt>
<trk><name>photo2kml_export</name><trkseg>

</trkseg></trk>
</gpx>