<?xml version="1.0" encoding="UTF-8"?>
<gpx version="1.1" creator="Marando" xmlns="http://www.topografix.com/GPX/1/1">
<wpt lat="49.96669" lon="1.1867997222222222"><ele>0</ele><name>OMIMG_20260327_110331_bis.jpg</name><desc>Date : 2026-03-27 11:03:39 Latitude : 49.966690 Longitude : 1.186800 Altitude : 0.0 m</desc></wpt>
<wpt lat="49.96666472222223" lon="1.186225"><ele>0</ele><name>OMIMG_20260327_104924_bis.jpg</name><desc>Date : 2026-03-27 10:49:36 Latitude : 49.966665 Longitude : 1.186225 Altitude : 0.0 m</desc></wpt>
<wpt lat="49.96643805555556" lon="1.1860833333333334"><ele>0</ele><name>OMIMG_20260327_104312_bis.jpg</name><desc>Date : 2026-03-27 10:43:17 Latitude : 49.966438 Longitude : 1.186083 Altitude : 0.0 m</desc></wpt>
<wpt lat="49.96641805555556" lon="1.186001388888889"><ele>0</ele><name>OMIMG_20260327_104033_bis.jpg</name><desc>Date : 2026-03-27 10:40:39 Latitude : 49.966418 Longitude : 1.186001 Altitude : 0.0 m</desc></wpt>
<wpt lat="49.96637305555556" lon="1.1858816666666667"><ele>0</ele><name>OMIMG_20260327_103552_bis.jpg</name><desc>Date : 2026-03-27 10:35:55 Latitude : 49.966373 Longitude : 1.185882 Altitude : 0.0 m</desc></wpt>
<wpt lat="49.96681" lon="1.1884166666666667"><ele>0</ele><name>OMIMG_20260327_102008_bis.jpg</name><desc>Date : 2026-03-27 10:20:13 Latitude : 49.966810 Longitude : 1.188417 Altitude : 0.0 m</desc></wpt>
<wpt lat="49.96687666666667" lon="1.1886897222222221"><ele>0</ele><name>OMIMG_20260327_101542_bis.jpg</name><desc>Date : 2026-03-27 10:15:54 Latitude : 49.966877 Longitude : 1.188690 Altitude : 0.0 m</desc></wpt>
<wpt lat="49.966863333333336" lon="1.188681388888889"><ele>0</ele><name>OMIMG_20260327_101530_bis.jpg</name><desc>Date : 2026-03-27 10:15:35 Latitude : 49.966863 Longitude : 1.188681 Altitude : 0.0 m</desc></wpt>
<wpt lat="49.96694305555556" lon="1.1902947222222222"><ele>0</ele><name>OMIMG_20260327_100812_bis.jpg</name><desc>Date : 2026-03-27 10:08:22 Latitude : 49.966943 Longitude : 1.190295 Altitude : 0.0 m</desc></wpt>
<wpt lat="49.96694305555556" lon="1.1902947222222222"><ele>0</ele><name>OMIMG_20260327_100759_bis.jpg</name><desc>Date : 2026-03-27 10:08:04 Latitude : 49.966943 Longitude : 1.190295 Altitude : 0.0 m</desc></wpt>
<wpt lat="49.970979722222225" lon="1.2015016666666667"><ele>0</ele><name>OMIMG_20260327_092553_bis.jpg</name><desc>Date : 2026-03-27 09:25:58 Latitude : 49.970980 Longitude : 1.201502 Altitude : 0.0 m</desc></wpt>
<wpt lat="49.97017138888889" lon="1.19948"><ele>0</ele><name>OMIMG_20260327_090144_bis.jpg</name><desc>Date : 2026-03-27 09:01:52 Latitude : 49.970171 Longitude : 1.199480 Altitude : 0.0 m</desc></wpt>
<wpt lat="49.970145" lon="1.19919"><ele>0</ele><name>OMIMG_20260327_085628_bis.jpg</name><desc>Date : 2026-03-27 08:56:33 Latitude : 49.970145 Longitude : 1.199190 Altitude : 0.0 m</desc></wpt>
<wpt lat="49.969834722222224" lon="1.1984383333333333"><ele>0</ele><name>OMIMG_20260327_085042_bis.jpg</name><desc>Date : 2026-03-27 08:50:50 Latitude : 49.969835 Longitude : 1.198438 Altitude : 0.0 m</desc></wpt>
<wpt lat="49.969834722222224" lon="1.1984383333333333"><ele>0</ele><name>OMIMG_20260327_085042_rec_bis.jpg</name><desc>Date : 2026-03-27 08:50:50 Latitude : 49.969835 Longitude : 1.198438 Altitude : 0.0 m</desc></wpt>
<wpt lat="49.969485" lon="1.1979630555555556"><ele>0</ele><name>OMIMG_20260327_084427_bis.jpg</name><desc>Date : 2026-03-27 08:44:31 Latitude : 49.969485 Longitude : 1.197963 Altitude : 0.0 m</desc></wpt>
<wpt lat="49.96934435671999" lon="1.197574616976729"><ele>0</ele><name>OMIMG_20260327_083845_bis.jpg</name><desc>Date : 2026-03-27 08:38:49 Latitude : 49.969247 Longitude : 1.197483 Altitude : 0.0 m</desc></wpt>
<wpt lat="49.968988055555556" lon="1.1968013888888889"><ele>0</ele><name>OMIMG_20260327_083428_bis.jpg</name><desc>Date : 2026-03-27 08:34:35 Latitude : 49.968988 Longitude : 1.196801 Altitude : 0.0 m</desc></wpt>
<wpt lat="49.96876833333334" lon="1.19645"><ele>0</ele><name>OMIMG_20260327_083100_bis.jpg</name><desc>Date : 2026-03-27 08:31:06 Latitude : 49.968768 Longitude : 1.196450 Altitude : 0.0 m</desc></wpt>
<trk><name>stmartinplage</name><trkseg>

</trkseg></trk>
</gpx>