<?xml version="1.0" encoding="UTF-8"?>
<kml xmlns="http://www.opengis.net/kml/2.2"><Document><name>le_tour_de_l_etang_du_moulin_rolleville</name>
<Placemark><name>Tracé</name><Style><LineStyle><color>ff5aad7a</color><width>3</width></LineStyle></Style><LineString><altitudeMode>clampToGround</altitudeMode><coordinates>0.21398,49.582932,0
0.213953,49.583107,0
0.213863,49.583284,0
0.213836,49.583456,0
0.213803,49.583649,0
0.213687,49.583726,0
0.21365,49.583806,0
0.213625,49.583884,0
0.213603,49.583986,0
0.213597,49.584171,0
0.213574,49.584349,0
0.213538,49.584481,0
0.213648,49.584524,0
0.21359,49.584549,0
0.21351,49.584546,0
0.213432,49.584638,0
0.213249,49.584773,0
0.213059,49.58491,0
0.212891,49.585063,0
0.212818,49.585145,0
0.212732,49.585212,0
0.212636,49.585395,0
0.212526,49.585567,0
0.212418,49.585734,0
0.212292,49.585899,0
0.212158,49.586064,0
0.212079,49.586241,0
0.212036,49.58642,0
0.212114,49.586595,0
0.212195,49.586771,0
0.212337,49.586774,0
0.212482,49.586783,0
0.212733,49.586822,0
0.21285,49.586851,0
0.212956,49.586892,0
0.212988,49.586903,0
0.212988,49.586954,0
0.213075,49.58692,0
0.213122,49.586926,0
0.213159,49.586916,0
0.213212,49.586837,0
0.213257,49.586806,0
0.213294,49.586765,0
0.213343,49.586664,0
0.213473,49.586501,0
0.213601,49.586325,0
0.213633,49.586294,0
0.213674,49.586267,0
0.213745,49.58625,0
0.213816,49.586201,0
0.213955,49.586036,0
0.214118,49.585891,0
0.214222,49.585724,0
0.214337,49.585554,0
0.214467,49.585386,0
0.214543,49.585208,0
0.21463,49.585026,0
0.214689,49.58485,0
0.214795,49.584677,0
0.214853,49.584495,0
0.214899,49.584312,0
0.214992,49.584139,0
0.215073,49.583966,0
0.215188,49.583797,0
0.215069,49.583729,0
0.214988,49.58365,0
0.214973,49.583559,0
0.21497,49.583463,0
0.214858,49.58331,0
0.21474,49.583186,0
0.214665,49.583068,0
0.214425,49.58312,0
0.214285,49.583152,0
0.214235,49.583268,0
0.214199,49.583452,0
0.214126,49.58363,0
0.214089,49.583733,0
0.214024,49.583798,0
0.21387,49.583638,0
0.213886,49.583454,0
0.2139,49.583276,0
0.213972,49.583158,0
0.213776,49.583104,0
0.213919,49.583121,0
0.213969,49.582972,0</coordinates></LineString></Placemark>
<Placemark><name>Houx</name><description><![CDATA[Ecouter plus loin le commentaire vocal.]]></description><ExtendedData><Data name="comment"><value>Ecouter plus loin le commentaire vocal.</value></Data></ExtendedData><Point><coordinates>0.213175,49.586858,0</coordinates></Point></Placemark>
<Placemark><name>Noyer</name><description><![CDATA[Voici le noyer. Ou Juglans regia. Cet arbre se trouve dans le jardin de ce particulier. Mais vous pouvez toucher ses feuilles et ramasser ses noix sur le domaine public. Il possède de grandes feuilles composées de 5 à 9 folioles ovales. L'écorce est grise et lisse chez le jeune noyer. Elle se fissure avec l(âge.]]></description><ExtendedData><Data name="comment"><value>Voici le noyer. Ou Juglans regia. Cet arbre se trouve dans le jardin de ce particulier. Mais vous pouvez toucher ses feuilles et ramasser ses noix sur le domaine public. Il possède de grandes feuilles composées de 5 à 9 folioles ovales. L'écorce est grise et lisse chez le jeune noyer. Elle se fissure avec l(âge.</value></Data></ExtendedData><Point><coordinates>0.212965,49.586942,0</coordinates></Point></Placemark>
<Placemark><name>Ormeau</name><ExtendedData><Data name="audio"><value>audio/ormeau-audio.mp3</value></Data></ExtendedData><Point><coordinates>0.212651,49.585344,0</coordinates></Point></Placemark>
<Placemark><name>Arrivée</name><Point><coordinates>0.21398,49.582932,0</coordinates></Point></Placemark>
<Placemark><name>Aulne 2004 (7)</name><Point><coordinates>0.212741,49.585199,0</coordinates></Point></Placemark>
<Placemark><name>Aulne 2009 (12)</name><Point><coordinates>0.212046,49.586321,0</coordinates></Point></Placemark>
<Placemark><name>Aulne 2011 (14)</name><Point><coordinates>0.212067,49.586506,0</coordinates></Point></Placemark>
<Placemark><name>Aulne blanc</name><description><![CDATA[Alnus incana }]]></description><ExtendedData><Data name="comment"><value>Alnus incana }</value></Data><Data name="audio"><value>audio/aulne_blanc-audio.mp3</value></Data></ExtendedData><Point><coordinates>0.213324,49.584721,0</coordinates></Point></Placemark>
<Placemark><name>Bambou</name><description><![CDATA[D'autres pieds de bambou existent plus loin sur le chemin; un commentaire vocal y est proposé.]]></description><ExtendedData><Data name="comment"><value>D'autres pieds de bambou existent plus loin sur le chemin; un commentaire vocal y est proposé.</value></Data></ExtendedData><Point><coordinates>0.212166,49.586611,0</coordinates></Point></Placemark>
<Placemark><name>bambou</name><ExtendedData><Data name="audio"><value>audio/bambou-audio.mp3</value></Data></ExtendedData><Point><coordinates>0.215795,49.584819,0</coordinates></Point></Placemark>
<Placemark><name>Bernache du Canada</name><ExtendedData><Data name="audio"><value>audio/bernache_du_canada-audio.mp3</value></Data><Data name="youtube"><value>RnzzbLHqTv4</value></Data></ExtendedData><Point><coordinates>0.214284,49.583782,0</coordinates></Point></Placemark>
<Placemark><name>Bouleau blanc</name><description><![CDATA[Betula pendula Voila un arbre avec une écorce blanche caractéristique. Cette écorce est lisse et marquée de lenticelles horizontales. Les feuilles sont triangulaires, pointues et dentées. La fleur prend la forme d'un chaton. Le chaton mâle est pendant. Le chaton femelle est dressé. Le bouleau blanc est encore appelé bouleau verruqueux. Ceci est dû au fait que ses jeunes branches portent des verrues de résine blanchâtre.]]></description><ExtendedData><Data name="comment"><value>Betula pendula Voila un arbre avec une écorce blanche caractéristique. Cette écorce est lisse et marquée de lenticelles horizontales. Les feuilles sont triangulaires, pointues et dentées. La fleur prend la forme d'un chaton. Le chaton mâle est pendant. Le chaton femelle est dressé. Le bouleau blanc est encore appelé bouleau verruqueux. Ceci est dû au fait que ses jeunes branches portent des verrues de résine blanchâtre.</value></Data></ExtendedData><Point><coordinates>0.212094,49.58613,0</coordinates></Point></Placemark>
<Placemark><name>Bouleau verruqueux (4)</name><description><![CDATA[Betula pendula]]></description><ExtendedData><Data name="comment"><value>Betula pendula</value></Data><Data name="audio"><value>audio/bouleau_verruqueux__4_-audio.mp3</value></Data></ExtendedData><Point><coordinates>0.213667,49.584534,0</coordinates></Point></Placemark>
<Placemark><name>charme</name><ExtendedData><Data name="audio"><value>audio/charme-audio.mp3</value></Data></ExtendedData><Point><coordinates>0.213712,49.583711,0</coordinates></Point></Placemark>
<Placemark><name>chataignier</name><Point><coordinates>0.215551,49.585137,0</coordinates></Point></Placemark>
<Placemark><name>Chêne 2010 (13)</name><Point><coordinates>0.21204,49.586424,0</coordinates></Point></Placemark>
<Placemark><name>Chêne pédonculé</name><description><![CDATA[Quercus robur Chez le chêne sessile, la base de la feuille ne présente pas d'oreillettes. Alors que chez le chêne pédonculé, il y a 2 oreillettes.]]></description><ExtendedData><Data name="comment"><value>Quercus robur Chez le chêne sessile, la base de la feuille ne présente pas d'oreillettes. Alors que chez le chêne pédonculé, il y a 2 oreillettes.</value></Data><Data name="audio"><value>audio/ch_ne_p_doncul_-audio.mp3</value></Data></ExtendedData><Point><coordinates>0.21253,49.585617,0</coordinates></Point></Placemark>
<Placemark><name>Chêne rouge d'Amérique (1)</name><Point><coordinates>0.214013,49.583035,0</coordinates></Point></Placemark>
<Placemark><name>Cliquer ici pour commencer</name><description><![CDATA[Parcours de découverte de l'Etang du Moulin Bonjour. Vous vous trouvez à l'entrée du site de l'Etang du Moulin. Un chemin a été aménagé de manière à faire le tour de l'étang. Le long de ce parcours d'un peu plus d'un kilomètre, vous allez croiser des éléments naturels. Des arbres, des plantes ou des oiseaux. Si vous souhaitez mieux les connaître, nous allons vous y aider, pas à pas. Utilisez votre téléphone mobile et autorisez la géolocalisation. Sur la carte apparaissent des épingles avec une étiquette associée. Il suffit de cliquer sur ces]]></description><ExtendedData><Data name="comment"><value>Parcours de découverte de l'Etang du Moulin Bonjour. Vous vous trouvez à l'entrée du site de l'Etang du Moulin. Un chemin a été aménagé de manière à faire le tour de l'étang. Le long de ce parcours d'un peu plus d'un kilomètre, vous allez croiser des éléments naturels. Des arbres, des plantes ou des oiseaux. Si vous souhaitez mieux les connaître, nous allons vous y aider, pas à pas. Utilisez votre téléphone mobile et autorisez la géolocalisation. Sur la carte apparaissent des épingles avec une étiquette associée. Il suffit de cliquer sur ces</value></Data><Data name="audio"><value>audio/cliquer_ici_pour_commencer-audio.mp3</value></Data></ExtendedData><Point><coordinates>0.21397,49.582923,0</coordinates></Point></Placemark>
<Placemark><name>Colvert</name><ExtendedData><Data name="audio"><value>audio/colvert-audio.mp3</value></Data></ExtendedData><Point><coordinates>0.213822,49.584139,0</coordinates></Point></Placemark>
<Placemark><name>Cornouiller male</name><Point><coordinates>0.212891,49.58505,0</coordinates></Point></Placemark>
<Placemark><name>Cygne</name><ExtendedData><Data name="audio"><value>audio/cygne-audio.mp3</value></Data><Data name="youtube"><value>dQw4w9WgXcQ</value></Data></ExtendedData><Point><coordinates>0.21248728036880493,49.586119569828476,0</coordinates></Point></Placemark>
<Placemark><name>Ecorce de frêne</name><description><![CDATA[L'écorce chez les jeunes arbres est lisse, de couleur gris-vert. En vieillissant l'écorce se fissure et devient rugueuse et crevassée. Ses crevasses dessinent des losanges.]]></description><ExtendedData><Data name="comment"><value>L'écorce chez les jeunes arbres est lisse, de couleur gris-vert. En vieillissant l'écorce se fissure et devient rugueuse et crevassée. Ses crevasses dessinent des losanges.</value></Data></ExtendedData><Point><coordinates>0.214715,49.586381,0</coordinates></Point></Placemark>
<Placemark><name>erable a feuille d'obier</name><Point><coordinates>0.217234,49.583488,0</coordinates></Point></Placemark>
<Placemark><name>Erable champêtre</name><description><![CDATA[Acer campestre]]></description><ExtendedData><Data name="comment"><value>Acer campestre</value></Data></ExtendedData><Point><coordinates>0.212921,49.584998,0</coordinates></Point></Placemark>
<Placemark><name>Erable sycomore</name><description><![CDATA[Acer pseudoplatanus]]></description><ExtendedData><Data name="comment"><value>Acer pseudoplatanus</value></Data><Data name="audio"><value>audio/erable_sycomore-audio.mp3</value></Data></ExtendedData><Point><coordinates>0.212368,49.58581,0</coordinates></Point></Placemark>
<Placemark><name>Foulque macroule</name><description><![CDATA[https://www.youtube.com/embed/vtiyjy_TWv4]]></description><ExtendedData><Data name="comment"><value>https://www.youtube.com/embed/vtiyjy_TWv4</value></Data><Data name="youtube"><value>52v3bEMKiQ0</value></Data></ExtendedData><Point><coordinates>0.212542,49.586023,0</coordinates></Point></Placemark>
<Placemark><name>Four à pain</name><Point><coordinates>0.214427,49.58312,0</coordinates></Point></Placemark>
<Placemark><name>Frêne</name><ExtendedData><Data name="audio"><value>audio/fr_ne-audio.mp3</value></Data></ExtendedData><Point><coordinates>0.212589,49.586799,0</coordinates></Point></Placemark>
<Placemark><name>Frene commun (2)</name><description><![CDATA[Voici une jeune frêne. Regardez son écorce. Elle est grise et lisse. Vous verrez plus loin de vieux frênes; Vous constaterez qu'elle a bien changé en vieillissant.]]></description><ExtendedData><Data name="comment"><value>Voici une jeune frêne. Regardez son écorce. Elle est grise et lisse. Vous verrez plus loin de vieux frênes; Vous constaterez qu'elle a bien changé en vieillissant.</value></Data></ExtendedData><Point><coordinates>0.21376,49.583616,0</coordinates></Point></Placemark>
<Placemark><name>Fuligule morillon</name><ExtendedData><Data name="audio"><value>audio/fuligule_morillon-audio.mp3</value></Data><Data name="youtube"><value>bLXPddcTiuM</value></Data></ExtendedData><Point><coordinates>0.213828,49.584375,0</coordinates></Point></Placemark>
<Placemark><name>Gallinule</name><Point><coordinates>0.214523,49.583766,0</coordinates></Point></Placemark>
<Placemark><name>Gland de chêne</name><ExtendedData><Data name="audio"><value>audio/gland_de_ch_ne-audio.mp3</value></Data></ExtendedData><Point><coordinates>0.212513,49.585552,0</coordinates></Point></Placemark>
<Placemark><name>hetre</name><description><![CDATA[Tiens voici un arbre à l'écorce lisse. Oui, c'est un hêtre. Regarde-le de loin, on dirait un pied d'éléphant. L'écorce est grise et lisse. elle est très fine. Elle présente des cicatrices. Là où il y avait une branche, il y a une cicatrice. Quand l'arbre croît, la cicatrice est étirée.]]></description><ExtendedData><Data name="comment"><value>Tiens voici un arbre à l'écorce lisse. Oui, c'est un hêtre. Regarde-le de loin, on dirait un pied d'éléphant. L'écorce est grise et lisse. elle est très fine. Elle présente des cicatrices. Là où il y avait une branche, il y a une cicatrice. Quand l'arbre croît, la cicatrice est étirée.</value></Data></ExtendedData><Point><coordinates>0.214116,49.586316,0</coordinates></Point></Placemark>
<Placemark><name>Highlands</name><ExtendedData><Data name="audio"><value>audio/highlands-audio.mp3</value></Data><Data name="youtube"><value>WqLglHV8PA0</value></Data></ExtendedData><Point><coordinates>0.213399,49.586534,0</coordinates></Point></Placemark>
<Placemark><name>houx</name><ExtendedData><Data name="audio"><value>audio/houx-audio.mp3</value></Data></ExtendedData><Point><coordinates>0.217044,49.583292,0</coordinates></Point></Placemark>
<Placemark><name>Introduction</name><ExtendedData><Data name="audio"><value>audio/introduction-audio.mp3</value></Data></ExtendedData><Point><coordinates>0.213974,49.582983,0</coordinates></Point></Placemark>
<Placemark><name>L'ancienne roue du moulin</name><description><![CDATA[Il y avait plus d'une dizaine de moulins sur la Lézarde qui étaient mûs par une roue hydraulique. De cette ancienne roue, il ne subsiste ici que l'axe.]]></description><ExtendedData><Data name="comment"><value>Il y avait plus d'une dizaine de moulins sur la Lézarde qui étaient mûs par une roue hydraulique. De cette ancienne roue, il ne subsiste ici que l'axe.</value></Data></ExtendedData><Point><coordinates>0.213724,49.583092,0</coordinates></Point></Placemark>
<Placemark><name>L'étang</name><ExtendedData><Data name="audio"><value>audio/l__tang-audio.mp3</value></Data></ExtendedData><Point><coordinates>0.213944,49.583916,0</coordinates></Point></Placemark>
<Placemark><name>Laurier cerise</name><Point><coordinates>0.215203,49.583846,0</coordinates></Point></Placemark>
<Placemark><name>Le moulin</name><Point><coordinates>0.214219,49.583347,0</coordinates></Point></Placemark>
<Placemark><name>Merisier</name><ExtendedData><Data name="audio"><value>audio/merisier-audio.mp3</value></Data></ExtendedData><Point><coordinates>0.214853,49.584305,0</coordinates></Point></Placemark>
<Placemark><name>Morelle</name><ExtendedData><Data name="audio"><value>audio/morelle-audio.mp3</value></Data></ExtendedData><Point><coordinates>0.212471,49.585576,0</coordinates></Point></Placemark>
<Placemark><name>Mouette rieuse</name><ExtendedData><Data name="audio"><value>audio/mouette_rieuse-audio.mp3</value></Data></ExtendedData><Point><coordinates>0.213831,49.584222,0</coordinates></Point></Placemark>
<Placemark><name>Noisetier</name><Point><coordinates>0.213384,49.586643,0</coordinates></Point></Placemark>
<Placemark><name>Noisetier</name><Point><coordinates>0.212898,49.585021,0</coordinates></Point></Placemark>
<Placemark><name>Noisetier</name><ExtendedData><Data name="audio"><value>audio/noisetier-audio.mp3</value></Data></ExtendedData><Point><coordinates>0.21208,49.586243,0</coordinates></Point></Placemark>
<Placemark><name>Noisetier fleur mâle</name><description><![CDATA[La fleur mâle du noisetier appelée châton. La fleur mâle, appelé chaton, se développe dès le mois de juin jusqu'à l'automne avant de rentrer en dormance jusqu'à la floraison entre mi-décembre et mars. Les chatons se déploient tout en longueur sur 5 à 10 cm en laissant leurs écailles jaunes s'ouvrir.]]></description><ExtendedData><Data name="comment"><value>La fleur mâle du noisetier appelée châton. La fleur mâle, appelé chaton, se développe dès le mois de juin jusqu'à l'automne avant de rentrer en dormance jusqu'à la floraison entre mi-décembre et mars. Les chatons se déploient tout en longueur sur 5 à 10 cm en laissant leurs écailles jaunes s'ouvrir.</value></Data></ExtendedData><Point><coordinates>0.212423,49.585693,0</coordinates></Point></Placemark>
<Placemark><name>Ormes</name><Point><coordinates>0.212519,49.585503,0</coordinates></Point></Placemark>
<Placemark><name>Saule</name><Point><coordinates>0.214879,49.583388,0</coordinates></Point></Placemark>
<Placemark><name>Saule</name><Point><coordinates>0.21322,49.584876,0</coordinates></Point></Placemark>
<Placemark><name>Saule pleureur</name><Point><coordinates>0.214011,49.583067,0</coordinates></Point></Placemark>
<Placemark><name>Source</name><ExtendedData><Data name="audio"><value>audio/source-audio.mp3</value></Data></ExtendedData><Point><coordinates>0.215281,49.58382,0</coordinates></Point></Placemark>
<Placemark><name>Sureau</name><description><![CDATA[Commentaire vocal]]></description><ExtendedData><Data name="comment"><value>Commentaire vocal</value></Data></ExtendedData><Point><coordinates>0.215292,49.585522,0</coordinates></Point></Placemark>
<Placemark><name>Sureau</name><description><![CDATA[Le sureau noir est une espèce d'arbuste fruitier, à feuilles caduques. Quand on casse de jeunes rameaux, on peut voir au coeur la moêlle, une substance blanche et spongieuse. Le bois est protégé par une écorce gris vert, très fissurée. La feuille est composée de 5 à 7 folioles pointues et à bord denté. Quand on frotte les feuilles, elles émettent une odeur déplaisante. Les fleurs blanches sont disposées en ombelle et elles apparaissent au début de l'été. Les fruits sont de petites baies noir violacé disposées en grappe. Les fleurs comm]]></description><ExtendedData><Data name="comment"><value>Le sureau noir est une espèce d'arbuste fruitier, à feuilles caduques. Quand on casse de jeunes rameaux, on peut voir au coeur la moêlle, une substance blanche et spongieuse. Le bois est protégé par une écorce gris vert, très fissurée. La feuille est composée de 5 à 7 folioles pointues et à bord denté. Quand on frotte les feuilles, elles émettent une odeur déplaisante. Les fleurs blanches sont disposées en ombelle et elles apparaissent au début de l'été. Les fruits sont de petites baies noir violacé disposées en grappe. Les fleurs comm</value></Data></ExtendedData><Point><coordinates>0.213213,49.586949,0</coordinates></Point></Placemark>
<Placemark><name>Troène</name><Point><coordinates>0.212409,49.586778,0</coordinates></Point></Placemark>
<Placemark><name>Tronc de saule</name><Point><coordinates>0.213869,49.583688,0</coordinates></Point></Placemark>
<Placemark><name>Vieux frêne</name><description><![CDATA[Comparez l'écorce de ce vieux frêne avec celle du jeune frêne. Celle-ci s'est craquelée. Les lames d'écorce forment des losanges.]]></description><ExtendedData><Data name="comment"><value>Comparez l'écorce de ce vieux frêne avec celle du jeune frêne. Celle-ci s'est craquelée. Les lames d'écorce forment des losanges.</value></Data></ExtendedData><Point><coordinates>0.213124,49.58691,0</coordinates></Point></Placemark>
<Placemark><name>Yucca</name><Point><coordinates>0.212115,49.586567,0</coordinates></Point></Placemark>
</Document></kml>